OBJECT_NAME,OBJECT_ID,EPOCH,MEAN_MOTION,ECCENTRICITY,INCLINATION,RA_OF_ASC_NODE,ARG_OF_PERICENTER,MEAN_ANOMALY,EPHEMERIS_TYPE,CLASSIFICATION_TYPE,NORAD_CAT_ID,ELEMENT_SET_NO,REV_AT_EPOCH,BSTAR,MEAN_MOTION_DOT,MEAN_MOTION_DDOT
LEMUR-2-CELIJO-SB-PK,2025-276DW,2026-06-27T04:13:30.686304,15.00092781,.00081161,97.5232,248.6253,108.4923,251.7184,0,U,66781,999,2412,.54447923E-3,.6737E-4,0
LEMUR-2-FINNIAN,2025-276DX,2026-06-27T00:24:30.686976,15.00465687,.00085837,97.5321,248.6986,60.9058,299.3024,0,U,66782,999,2147,.34316598E-3,.4265E-4,0
LEMUR-2-STARLIGHT,2025-276DY,2026-06-27T04:22:36.939072,14.99150450,.00146931,97.5246,248.4795,99.5869,260.7015,0,U,66783,999,3169,.5879693E-3,.7114E-4,0
LEMUR-2-TARTIFLETTE,2025-276DZ,2026-06-27T04:20:13.550496,14.99160657,.00136658,97.5249,248.4855,106.6575,253.6150,0,U,66784,999,3169,.49314034E-3,.5956E-4,0
LEMUR-2-VUKASIN,2025-276EA,2026-06-27T03:58:40.789632,15.00427472,.00054867,97.5292,248.7921,101.2816,258.9025,0,U,66785,999,3164,.1444803E-3,.176E-4,0
LEMUR-2-HOTSPUR-TOM,2025-276EB,2026-06-27T04:10:30.463680,14.99060888,.0014714,97.5243,248.4580,98.5783,261.7108,0,U,66786,999,3162,.50414161E-3,.6076E-4,0
LEMUR-2-MYRA,2025-276EC,2026-06-27T03:08:53.672064,15.00380419,.00177074,97.5221,248.6859,109.5102,250.8036,0,U,66787,999,3170,.61852412E-3,.774E-4,0
LEMUR-2 FIKRETDENGIZ,2026-004A,2026-06-26T22:47:47.169600,14.88392743,.0010591,97.8013,176.3578,105.6843,254.5543,0,U,67363,999,2473,.5125E-3,.4701E-4,0
TWILIGHT-1 OBJECT B,2026-004B,2026-06-27T05:56:25.576800,14.87735811,.00102784,97.8064,176.6617,96.1183,264.1205,0,U,67364,999,2478,.21402764E-3,.1899E-4,0
LEMUR-2-MARIO-SOUSA,2026-004C,2026-06-26T23:59:10.624992,14.88587918,.00101439,97.7984,176.4023,106.5377,253.6955,0,U,67365,999,2475,.5332508E-3,.4917E-4,0
LEMUR-2-SONNENBLUME,2026-004E,2026-06-26T22:22:02.660736,14.88363917,.0009637,97.7984,176.3166,108.0943,252.1324,0,U,67367,999,2474,.36194E-3,.33E-4,0
LEMUR-2-WOBLER,2026-004F,2026-06-27T06:14:41.337888,14.88581490,.00099707,97.8036,176.7722,98.4396,261.7952,0,U,67368,999,2479,.43955374E-3,.4042E-4,0
LEMUR-2-GRAM-E-SUE,2026-004H,2026-06-27T06:01:46.140672,14.88513106,.00087397,97.7972,176.6467,108.4890,251.7277,0,U,67370,999,2479,.26273621E-3,.2389E-4,0
LEMUR-2-KATIE,2026-004AA,2026-06-26T11:44:22.166880,14.90102051,.0004737,97.8033,176.3860,74.1849,285.9891,0,U,67387,999,2469,.38064E-3,.3625E-4,0
LEMUR-2-HCS-BAZUS,2026-004AB,2026-06-27T07:03:00.616896,14.90166025,.0004202,97.8020,177.1608,71.2659,288.9015,0,U,67388,999,2481,.59311764E-3,.5691E-4,0
