LEMUR-2-CELIJO-SB-PK    
1 66781U 25276DW  26178.17604961  .00006737  00000+0  54448-3 0  9998
2 66781  97.5232 248.6253 0008116 108.4923 251.7184 15.00092781 24121
LEMUR-2-FINNIAN         
1 66782U 25276DX  26178.01702184  .00004265  00000+0  34317-3 0  9995
2 66782  97.5321 248.6986 0008583  60.9058 299.3024 15.00465687 21478
LEMUR-2-STARLIGHT       
1 66783U 25276DY  26178.18237198  .00007114  00000+0  58797-3 0  9996
2 66783  97.5246 248.4795 0014693  99.5869 260.7015 14.99150450 31691
LEMUR-2-TARTIFLETTE     
1 66784U 25276DZ  26178.18071239  .00005956  00000+0  49314-3 0  9996
2 66784  97.5249 248.4855 0013665 106.6575 253.6150 14.99160657 31695
LEMUR-2-VUKASIN         
1 66785U 25276EA  26178.16574988  .00001760  00000+0  14448-3 0  9993
2 66785  97.5292 248.7921 0005486 101.2816 258.9025 15.00427472 31640
LEMUR-2-HOTSPUR-TOM     
1 66786U 25276EB  26178.17396370  .00006076  00000+0  50414-3 0  9990
2 66786  97.5243 248.4580 0014714  98.5783 261.7108 14.99060888 31623
LEMUR-2-MYRA            
1 66787U 25276EC  26178.13117676  .00007740  00000+0  61852-3 0  9994
2 66787  97.5221 248.6859 0017707 109.5102 250.8036 15.00380419 31700
LEMUR-2 FIKRETDENGIZ    
1 67363U 26004A   26177.94985150  .00004701  00000+0  51250-3 0  9998
2 67363  97.8013 176.3578 0010591 105.6843 254.5543 14.88392743 24738
TWILIGHT-1 OBJECT B     
1 67364U 26004B   26178.24751825  .00001899  00000+0  21403-3 0  9995
2 67364  97.8064 176.6617 0010278  96.1183 264.1205 14.87735811 24788
LEMUR-2-MARIO-SOUSA     
1 67365U 26004C   26177.99942853  .00004917  00000+0  53325-3 0  9992
2 67365  97.7984 176.4023 0010143 106.5377 253.6955 14.88587918 24756
LEMUR-2-SONNENBLUME     
1 67367U 26004E   26177.93197524  .00003300  00000+0  36194-3 0  9995
2 67367  97.7984 176.3166 0009637 108.0943 252.1324 14.88363917 24741
LEMUR-2-WOBLER          
1 67368U 26004F   26178.26020067  .00004042  00000+0  43955-3 0  9997
2 67368  97.8036 176.7722 0009970  98.4396 261.7952 14.88581490 24793
LEMUR-2-GRAM-E-SUE      
1 67370U 26004H   26178.25122848  .00002389  00000+0  26274-3 0  9996
2 67370  97.7972 176.6467 0008739 108.4890 251.7277 14.88513106 24790
LEMUR-2-KATIE           
1 67387U 26004AA  26177.48914545  .00003625  00000+0  38064-3 0  9995
2 67387  97.8033 176.3860 0004737  74.1849 285.9891 14.90102051 24694
LEMUR-2-HCS-BAZUS       
1 67388U 26004AB  26178.29375714  .00005691  00000+0  59312-3 0  9999
2 67388  97.8020 177.1608 0004202  71.2659 288.9015 14.90166025 24810
